[{"OBJECT_NAME":"INTELSAT 33E DEB","OBJECT_ID":"2016-053AJ","EPOCH":"2026-03-28T13:59:32.611776","MEAN_MOTION":0.99874717,"ECCENTRICITY":0.0108845,"INCLINATION":1.2348,"RA_OF_ASC_NODE":58.2873,"ARG_OF_PERICENTER":25.404,"MEAN_ANOMALY":335.9582,"EPHEMERIS_TYPE":0,"CLASSIFICATION_TYPE":"U","NORAD_CAT_ID":64404,"ELEMENT_SET_NO":999,"REV_AT_EPOCH":510,"BSTAR":0,"MEAN_MOTION_DOT":2.8e-7,"MEAN_MOTION_DDOT":0},{"OBJECT_NAME":"INTELSAT 33E DEB","OBJECT_ID":"2016-053AK","EPOCH":"2026-03-28T14:53:06.811872","MEAN_MOTION":0.99501272,"ECCENTRICITY":0.006701,"INCLINATION":1.5208,"RA_OF_ASC_NODE":94.9221,"ARG_OF_PERICENTER":10.2352,"MEAN_ANOMALY":350.7498,"EPHEMERIS_TYPE":0,"CLASSIFICATION_TYPE":"U","NORAD_CAT_ID":64405,"ELEMENT_SET_NO":999,"REV_AT_EPOCH":510,"BSTAR":0,"MEAN_MOTION_DOT":1.02e-6,"MEAN_MOTION_DDOT":0},{"OBJECT_NAME":"INTELSAT 33E DEB","OBJECT_ID":"2016-053AL","EPOCH":"2026-03-26T18:27:16.369344","MEAN_MOTION":0.98889497,"ECCENTRICITY":0.01278242,"INCLINATION":1.2607,"RA_OF_ASC_NODE":69.0263,"ARG_OF_PERICENTER":43.5032,"MEAN_ANOMALY":318.2821,"EPHEMERIS_TYPE":0,"CLASSIFICATION_TYPE":"U","NORAD_CAT_ID":64406,"ELEMENT_SET_NO":999,"REV_AT_EPOCH":502,"BSTAR":0,"MEAN_MOTION_DOT":-3.24e-6,"MEAN_MOTION_DDOT":0},{"OBJECT_NAME":"INTELSAT 33E DEB","OBJECT_ID":"2016-053AN","EPOCH":"2026-03-28T04:04:11.939232","MEAN_MOTION":1.03206338,"ECCENTRICITY":0.1783644,"INCLINATION":2.1903,"RA_OF_ASC_NODE":98.2069,"ARG_OF_PERICENTER":286.0779,"MEAN_ANOMALY":55.5308,"EPHEMERIS_TYPE":0,"CLASSIFICATION_TYPE":"U","NORAD_CAT_ID":64408,"ELEMENT_SET_NO":999,"REV_AT_EPOCH":524,"BSTAR":0,"MEAN_MOTION_DOT":-8.9e-7,"MEAN_MOTION_DDOT":0},{"OBJECT_NAME":"INTELSAT 33E DEB","OBJECT_ID":"2016-053AP","EPOCH":"2026-03-28T18:14:42.290880","MEAN_MOTION":0.99472789,"ECCENTRICITY":0.0052553,"INCLINATION":1.3173,"RA_OF_ASC_NODE":79.2502,"ARG_OF_PERICENTER":77.2596,"MEAN_ANOMALY":284.2951,"EPHEMERIS_TYPE":0,"CLASSIFICATION_TYPE":"U","NORAD_CAT_ID":64409,"ELEMENT_SET_NO":999,"REV_AT_EPOCH":506,"BSTAR":0,"MEAN_MOTION_DOT":-2.48e-6,"MEAN_MOTION_DDOT":0},{"OBJECT_NAME":"INTELSAT 33E DEB","OBJECT_ID":"2016-053AQ","EPOCH":"2026-03-27T22:48:25.857792","MEAN_MOTION":0.99986753,"ECCENTRICITY":0.0065933,"INCLINATION":1.2507,"RA_OF_ASC_NODE":69.6985,"ARG_OF_PERICENTER":350.0706,"MEAN_ANOMALY":10.6791,"EPHEMERIS_TYPE":0,"CLASSIFICATION_TYPE":"U","NORAD_CAT_ID":64410,"ELEMENT_SET_NO":999,"REV_AT_EPOCH":507,"BSTAR":0,"MEAN_MOTION_DOT":-1.17e-6,"MEAN_MOTION_DDOT":0},{"OBJECT_NAME":"COSMOS 2589","OBJECT_ID":"2025-131A","EPOCH":"2026-03-28T01:31:59.122272","MEAN_MOTION":1.0029919,"ECCENTRICITY":0.0612214,"INCLINATION":0.1281,"RA_OF_ASC_NODE":346.244,"ARG_OF_PERICENTER":120.5154,"MEAN_ANOMALY":196.2203,"EPHEMERIS_TYPE":0,"CLASSIFICATION_TYPE":"U","NORAD_CAT_ID":64467,"ELEMENT_SET_NO":999,"REV_AT_EPOCH":274,"BSTAR":0,"MEAN_MOTION_DOT":-3.43e-6,"MEAN_MOTION_DDOT":0},{"OBJECT_NAME":"CHINASAT 9C","OBJECT_ID":"2025-132A","EPOCH":"2026-03-24T18:48:20.594880","MEAN_MOTION":1.00270458,"ECCENTRICITY":0.00026119,"INCLINATION":0.0154,"RA_OF_ASC_NODE":188.5944,"ARG_OF_PERICENTER":160.8242,"MEAN_ANOMALY":207.1098,"EPHEMERIS_TYPE":0,"CLASSIFICATION_TYPE":"U","NORAD_CAT_ID":64470,"ELEMENT_SET_NO":999,"REV_AT_EPOCH":330,"BSTAR":0,"MEAN_MOTION_DOT":-2.56e-6,"MEAN_MOTION_DDOT":0},{"OBJECT_NAME":"COSMOS 2590","OBJECT_ID":"2025-131D","EPOCH":"2026-03-28T13:46:18.636384","MEAN_MOTION":1.00258081,"ECCENTRICITY":0.3657937,"INCLINATION":0.1568,"RA_OF_ASC_NODE":45.376,"ARG_OF_PERICENTER":53.9716,"MEAN_ANOMALY":40.0796,"EPHEMERIS_TYPE":0,"CLASSIFICATION_TYPE":"U","NORAD_CAT_ID":64527,"ELEMENT_SET_NO":999,"REV_AT_EPOCH":280,"BSTAR":0,"MEAN_MOTION_DOT":-2.92e-6,"MEAN_MOTION_DDOT":0},{"OBJECT_NAME":"MTG-S1","OBJECT_ID":"2025-143A","EPOCH":"2026-03-28T20:29:38.777856","MEAN_MOTION":1.00271903,"ECCENTRICITY":0.0002379,"INCLINATION":0.6276,"RA_OF_ASC_NODE":331.0297,"ARG_OF_PERICENTER":349.3349,"MEAN_ANOMALY":169.7679,"EPHEMERIS_TYPE":0,"CLASSIFICATION_TYPE":"U","NORAD_CAT_ID":64723,"ELEMENT_SET_NO":999,"REV_AT_EPOCH":261,"BSTAR":0,"MEAN_MOTION_DOT":-5.2e-7,"MEAN_MOTION_DDOT":0},{"OBJECT_NAME":"DROR 1","OBJECT_ID":"2025-148A","EPOCH":"2026-03-28T20:29:38.777856","MEAN_MOTION":1.00271638,"ECCENTRICITY":0.0003635,"INCLINATION":0.0343,"RA_OF_ASC_NODE":70.8531,"ARG_OF_PERICENTER":284.7124,"MEAN_ANOMALY":134.0864,"EPHEMERIS_TYPE":0,"CLASSIFICATION_TYPE":"U","NORAD_CAT_ID":64784,"ELEMENT_SET_NO":999,"REV_AT_EPOCH":249,"BSTAR":0,"MEAN_MOTION_DOT":-5.4e-7,"MEAN_MOTION_DDOT":0},{"OBJECT_NAME":"SHIYAN-29","OBJECT_ID":"2025-196A","EPOCH":"2026-03-28T18:39:35.514432","MEAN_MOTION":1.00280818,"ECCENTRICITY":0.0009791,"INCLINATION":28.7378,"RA_OF_ASC_NODE":19.5487,"ARG_OF_PERICENTER":181.385,"MEAN_ANOMALY":0.488,"EPHEMERIS_TYPE":0,"CLASSIFICATION_TYPE":"U","NORAD_CAT_ID":65486,"ELEMENT_SET_NO":999,"REV_AT_EPOCH":207,"BSTAR":0,"MEAN_MOTION_DOT":-2.83e-6,"MEAN_MOTION_DDOT":0},{"OBJECT_NAME":"NUSANTARA LIMA (NUSANTARA 5)","OBJECT_ID":"2025-205A","EPOCH":"2026-03-28T13:36:34.568928","MEAN_MOTION":1.00272018,"ECCENTRICITY":4.48e-5,"INCLINATION":0.0461,"RA_OF_ASC_NODE":36.4329,"ARG_OF_PERICENTER":352.1545,"MEAN_ANOMALY":114.3851,"EPHEMERIS_TYPE":0,"CLASSIFICATION_TYPE":"U","NORAD_CAT_ID":65588,"ELEMENT_SET_NO":999,"REV_AT_EPOCH":191,"BSTAR":0,"MEAN_MOTION_DOT":-3.77e-6,"MEAN_MOTION_DDOT":0},{"OBJECT_NAME":"TJS-20","OBJECT_ID":"2025-238A","EPOCH":"2026-03-28T18:15:38.652192","MEAN_MOTION":1.00268331,"ECCENTRICITY":0.0007969,"INCLINATION":5.6487,"RA_OF_ASC_NODE":299.8546,"ARG_OF_PERICENTER":97.9836,"MEAN_ANOMALY":124.656,"EPHEMERIS_TYPE":0,"CLASSIFICATION_TYPE":"U","NORAD_CAT_ID":66142,"ELEMENT_SET_NO":999,"REV_AT_EPOCH":152,"BSTAR":0,"MEAN_MOTION_DOT":-1.0e-8,"MEAN_MOTION_DDOT":0},{"OBJECT_NAME":"SPAINSAT NG II","OBJECT_ID":"2025-239A","EPOCH":"2026-03-27T03:36:11.286432","MEAN_MOTION":0.96854306,"ECCENTRICITY":0.76469182,"INCLINATION":14.5548,"RA_OF_ASC_NODE":231.7153,"ARG_OF_PERICENTER":203.5923,"MEAN_ANOMALY":82.8935,"EPHEMERIS_TYPE":0,"CLASSIFICATION_TYPE":"U","NORAD_CAT_ID":66144,"ELEMENT_SET_NO":999,"REV_AT_EPOCH":155,"BSTAR":0,"MEAN_MOTION_DOT":-3.0e-8,"MEAN_MOTION_DDOT":0},{"OBJECT_NAME":"CMS-03 (GSAT-7R)","OBJECT_ID":"2025-249B","EPOCH":"2026-03-28T11:42:53.499744","MEAN_MOTION":1.00271912,"ECCENTRICITY":0.00034763,"INCLINATION":0.0266,"RA_OF_ASC_NODE":254.6808,"ARG_OF_PERICENTER":100.8882,"MEAN_ANOMALY":80.0602,"EPHEMERIS_TYPE":0,"CLASSIFICATION_TYPE":"U","NORAD_CAT_ID":66311,"ELEMENT_SET_NO":999,"REV_AT_EPOCH":153,"BSTAR":0,"MEAN_MOTION_DOT":-9.7e-7,"MEAN_MOTION_DDOT":0},{"OBJECT_NAME":"VIASAT-3 F2","OBJECT_ID":"2025-261A","EPOCH":"2026-03-28T19:32:38.639040","MEAN_MOTION":1.00273789,"ECCENTRICITY":0.0001745,"INCLINATION":0.0588,"RA_OF_ASC_NODE":271.4683,"ARG_OF_PERICENTER":163.7321,"MEAN_ANOMALY":325.1658,"EPHEMERIS_TYPE":0,"CLASSIFICATION_TYPE":"U","NORAD_CAT_ID":66454,"ELEMENT_SET_NO":999,"REV_AT_EPOCH":197,"BSTAR":0,"MEAN_MOTION_DOT":-2.53e-6,"MEAN_MOTION_DDOT":0}]
