INTELSAT 33E DEB        
1 64404U 16053AJ  26087.58301634  .00000028  00000+0  00000+0 0  9994
2 64404   1.2348  58.2873 0108845  25.4040 335.9582  0.99874717  5105
INTELSAT 33E DEB        
1 64405U 16053AK  26087.62021773  .00000102  00000+0  00000+0 0  9996
2 64405   1.5208  94.9221 0067010  10.2352 350.7498  0.99501272  5108
INTELSAT 33E DEB        
1 64406U 16053AL  26085.76893946 -.00000324  00000+0  00000+0 0  9996
2 64406   1.2607  69.0263 0127824  43.5032 318.2821  0.98889497  5029
INTELSAT 33E DEB        
1 64408U 16053AN  26087.16958263 -.00000089  00000+0  00000+0 0  9996
2 64408   2.1903  98.2069 1783644 286.0779  55.5308  1.03206338  5248
INTELSAT 33E DEB        
1 64409U 16053AP  26087.76021170 -.00000248  00000+0  00000+0 0  9998
2 64409   1.3173  79.2502 0052553  77.2596 284.2951  0.99472789  5068
INTELSAT 33E DEB        
1 64410U 16053AQ  26086.95029928 -.00000117  00000+0  00000+0 0  9994
2 64410   1.2507  69.6985 0065933 350.0706  10.6791  0.99986753  5074
COSMOS 2589             
1 64467U 25131A   26087.06387873 -.00000343  00000+0  00000+0 0  9993
2 64467   0.1281 346.2440 0612214 120.5154 196.2203  1.00299190  2745
CHINASAT 9C             
1 64470U 25132A   26083.78357170 -.00000256  00000+0  00000+0 0  9993
2 64470   0.0154 188.5944 0002611 160.8242 207.1098  1.00270458  3305
COSMOS 2590             
1 64527U 25131D   26087.57382681 -.00000292  00000+0  00000+0 0  9991
2 64527   0.1568  45.3760 3657937  53.9716  40.0796  1.00258081  2803
MTG-S1                  
1 64723U 25143A   26087.85392104 -.00000052  00000+0  00000+0 0  9998
2 64723   0.6276 331.0297 0002379 349.3349 169.7679  1.00271903  2613
DROR 1                  
1 64784U 25148A   26087.85392104 -.00000054  00000+0  00000+0 0  9992
2 64784   0.0343  70.8531 0003635 284.7124 134.0864  1.00271638  2499
SHIYAN-29               
1 65486U 25196A   26087.77749438 -.00000283  00000+0  00000+0 0  9996
2 65486  28.7378  19.5487 0009791 181.3850   0.4880  1.00280818  2079
NUSANTARA LIMA (NUSANT*)
1 65588U 25205A   26087.56706677 -.00000377  00000+0  00000+0 0  9999
2 65588   0.0461  36.4329 0000448 352.1545 114.3851  1.00272018  1918
TJS-20                  
1 66142U 25238A   26087.76086403 -.00000001  00000+0  00000+0 0  9996
2 66142   5.6487 299.8546 0007969  97.9836 124.6560  1.00268331  1523
SPAINSAT NG II          
1 66144U 25239A   26086.15013063 -.00000003  00000+0  00000+0 0  9995
2 66144  14.5548 231.7153 7646918 203.5923  82.8935  0.96854306  1554
CMS-03 (GSAT-7R)        
1 66311U 25249B   26087.48811921 -.00000097  00000+0  00000+0 0  9991
2 66311   0.0266 254.6808 0003476 100.8882  80.0602  1.00271912  1531
VIASAT-3 F2             
1 66454U 25261A   26087.81433610 -.00000253  00000+0  00000+0 0  9999
2 66454   0.0588 271.4683 0001745 163.7321 325.1658  1.00273789  1973
